[{"OBJECT_NAME":"ITAMSAT (IO-26)","OBJECT_ID":"1993-061D","EPOCH":"2026-03-09T18:51:40.558176","MEAN_MOTION":14.31337175,"ECCENTRICITY":0.00091856,"INCLINATION":98.6929,"RA_OF_ASC_NODE":136.1036,"ARG_OF_PERICENTER":22.8845,"MEAN_ANOMALY":337.2746,"EPHEMERIS_TYPE":0,"CLASSIFICATION_TYPE":"U","NORAD_CAT_ID":22826,"ELEMENT_SET_NO":999,"REV_AT_EPOCH":69309,"BSTAR":7.3937292e-5,"MEAN_MOTION_DOT":1.51e-6,"MEAN_MOTION_DDOT":0},{"OBJECT_NAME":"CZ-4 DEB","OBJECT_ID":"1990-081CQ","EPOCH":"2026-03-09T22:33:32.530176","MEAN_MOTION":14.34279809,"ECCENTRICITY":0.00162858,"INCLINATION":98.5552,"RA_OF_ASC_NODE":68.6416,"ARG_OF_PERICENTER":287.8162,"MEAN_ANOMALY":72.1246,"EPHEMERIS_TYPE":0,"CLASSIFICATION_TYPE":"U","NORAD_CAT_ID":23259,"ELEMENT_SET_NO":999,"REV_AT_EPOCH":79599,"BSTAR":0.0006481784,"MEAN_MOTION_DOT":1.779e-5,"MEAN_MOTION_DDOT":0}]
